{
  "type": "FeatureCollection",
  "features": [
    {
      "type": "Feature",
      "properties": {
        "norad_id": 30360,
        "name": "FENGYUN 1C DEB",
        "group": "fengyun-1c-debris",
        "lat": 80.61263717188709,
        "lon": -58.48301575120018,
        "alt_km": 786.047606420977,
        "timestamp": "2025-12-08T23:34:04.245282+00:00",
        "meta_object_name": "FENGYUN 1C DEB",
        "meta_object_id": "1999-025ABX",
        "meta_epoch": "2025-12-08T03:15:29.218176",
        "meta_mean_motion": 14.26448866,
        "meta_eccentricity": 0.0031514,
        "meta_inclination": 98.7649,
        "meta_ra_of_asc_node": 51.7299,
        "meta_arg_of_pericenter": 159.4485,
        "meta_mean_anomaly": 271.0559,
        "meta_ephemeris_type": 0,
        "meta_classification_type": "U",
        "meta_norad_cat_id": 30360,
        "meta_element_set_no": 999,
        "meta_rev_at_epoch": 97359,
        "meta_bstar": 0.0021708471,
        "meta_mean_motion_dot": 5.211e-05,
        "meta_mean_motion_ddot": 0,
        "tle_line1": "1 30360U 99025ABX 25342.13575484  .00005211  00000+0  21708-2 0  9998",
        "tle_line2": "2 30360  98.7649  51.7299 0031514 159.4485 271.0559 14.26448866973591"
      },
      "geometry": {
        "type": "Point",
        "coordinates": [
          -58.48301575120018,
          80.61263717188709
        ]
      }
    },
    {
      "type": "Feature",
      "properties": {
        "norad_id": 30361,
        "name": "FENGYUN 1C DEB",
        "group": "fengyun-1c-debris",
        "lat": -29.73364490371751,
        "lon": -165.94401560469763,
        "alt_km": 859.305971843989,
        "timestamp": "2025-12-08T23:34:04.245292+00:00",
        "meta_object_name": "FENGYUN 1C DEB",
        "meta_object_id": "1999-025ABY",
        "meta_epoch": "2025-12-08T14:09:53.375904",
        "meta_mean_motion": 14.25329964,
        "meta_eccentricity": 0.00654457,
        "meta_inclination": 98.5688,
        "meta_ra_of_asc_node": 18.6136,
        "meta_arg_of_pericenter": 42.8261,
        "meta_mean_anomaly": 317.7991,
        "meta_ephemeris_type": 0,
        "meta_classification_type": "U",
        "meta_norad_cat_id": 30361,
        "meta_element_set_no": 999,
        "meta_rev_at_epoch": 97557,
        "meta_bstar": 0.0014448331,
        "meta_mean_motion_dot": 3.439e-05,
        "meta_mean_motion_ddot": 0,
        "tle_line1": "1 30361U 99025ABY 25342.59020111  .00003439  00000+0  14448-2 0  9994",
        "tle_line2": "2 30361  98.5688  18.6136 0065445  42.8261 317.7991 14.25329964975576"
      },
      "geometry": {
        "type": "Point",
        "coordinates": [
          -165.94401560469763,
          -29.73364490371751
        ]
      }
    },
    {
      "type": "Feature",
      "properties": {
        "norad_id": 30362,
        "name": "FENGYUN 1C DEB",
        "group": "fengyun-1c-debris",
        "lat": 38.03811992386158,
        "lon": -101.40809551584799,
        "alt_km": 800.903988926133,
        "timestamp": "2025-12-08T23:34:04.245302+00:00",
        "meta_object_name": "FENGYUN 1C DEB",
        "meta_object_id": "1999-025ABZ",
        "meta_epoch": "2025-12-08T06:22:45.994368",
        "meta_mean_motion": 14.11760326,
        "meta_eccentricity": 0.00959386,
        "meta_inclination": 99.0468,
        "meta_ra_of_asc_node": 265.0302,
        "meta_arg_of_pericenter": 355.8864,
        "meta_mean_anomaly": 4.1509,
        "meta_ephemeris_type": 0,
        "meta_classification_type": "U",
        "meta_norad_cat_id": 30362,
        "meta_element_set_no": 999,
        "meta_rev_at_epoch": 96105,
        "meta_bstar": 0.0036177704,
        "meta_mean_motion_dot": 6.845e-05,
        "meta_mean_motion_ddot": 0,
        "tle_line1": "1 30362U 99025ABZ 25342.26581012  .00006845  00000+0  36178-2 0  9999",
        "tle_line2": "2 30362  99.0468 265.0302 0095938 355.8864   4.1509 14.11760326961054"
      },
      "geometry": {
        "type": "Point",
        "coordinates": [
          -101.40809551584799,
          38.03811992386158
        ]
      }
    },
    {
      "type": "Feature",
      "properties": {
        "norad_id": 30363,
        "name": "FENGYUN 1C DEB",
        "group": "fengyun-1c-debris",
        "lat": -42.72277857317564,
        "lon": -134.38338616863066,
        "alt_km": 899.6280100675476,
        "timestamp": "2025-12-08T23:34:04.245313+00:00",
        "meta_object_name": "FENGYUN 1C DEB",
        "meta_object_id": "1999-025ACA",
        "meta_epoch": "2025-12-08T03:52:39.489888",
        "meta_mean_motion": 14.16836807,
        "meta_eccentricity": 0.00795906,
        "meta_inclination": 99.0306,
        "meta_ra_of_asc_node": 53.2295,
        "meta_arg_of_pericenter": 52.5284,
        "meta_mean_anomaly": 308.3094,
        "meta_ephemeris_type": 0,
        "meta_classification_type": "U",
        "meta_norad_cat_id": 30363,
        "meta_element_set_no": 999,
        "meta_rev_at_epoch": 96759,
        "meta_bstar": 0.0017969418,
        "meta_mean_motion_dot": 3.669e-05,
        "meta_mean_motion_ddot": 0,
        "tle_line1": "1 30363U 99025ACA 25342.16156817  .00003669  00000+0  17969-2 0  9998",
        "tle_line2": "2 30363  99.0306  53.2295 0079590  52.5284 308.3094 14.16836807967593"
      },
      "geometry": {
        "type": "Point",
        "coordinates": [
          -134.38338616863066,
          -42.72277857317564
        ]
      }
    },
    {
      "type": "Feature",
      "properties": {
        "norad_id": 30364,
        "name": "FENGYUN 1C DEB",
        "group": "fengyun-1c-debris",
        "lat": -16.50275404685072,
        "lon": -97.93613864578256,
        "alt_km": 605.0865644821151,
        "timestamp": "2025-12-08T23:34:04.245323+00:00",
        "meta_object_name": "FENGYUN 1C DEB",
        "meta_object_id": "1999-025ACB",
        "meta_epoch": "2025-12-08T05:44:01.310784",
        "meta_mean_motion": 14.16943722,
        "meta_eccentricity": 0.03331866,
        "meta_inclination": 98.1364,
        "meta_ra_of_asc_node": 258.9532,
        "meta_arg_of_pericenter": 333.5102,
        "meta_mean_anomaly": 180.7922,
        "meta_ephemeris_type": 0,
        "meta_classification_type": "U",
        "meta_norad_cat_id": 30364,
        "meta_element_set_no": 999,
        "meta_rev_at_epoch": 95577,
        "meta_bstar": 0.0044562781,
        "meta_mean_motion_dot": 0.00015436,
        "meta_mean_motion_ddot": 0,
        "tle_line1": "1 30364U 99025ACB 25342.23890406  .00015436  00000+0  44563-2 0  9991",
        "tle_line2": "2 30364  98.1364 258.9532 0333186 333.5102 180.7922 14.16943722955775"
      },
      "geometry": {
        "type": "Point",
        "coordinates": [
          -97.93613864578256,
          -16.50275404685072
        ]
      }
    },
    {
      "type": "Feature",
      "properties": {
        "norad_id": 30365,
        "name": "FENGYUN 1C DEB",
        "group": "fengyun-1c-debris",
        "lat": 32.61990535559505,
        "lon": 163.03413290055713,
        "alt_km": 715.6606680505047,
        "timestamp": "2025-12-08T23:34:04.245334+00:00",
        "meta_object_name": "FENGYUN 1C DEB",
        "meta_object_id": "1999-025ACC",
        "meta_epoch": "2025-12-08T06:03:06.456384",
        "meta_mean_motion": 14.19223423,
        "meta_eccentricity": 0.01678904,
        "meta_inclination": 98.6187,
        "meta_ra_of_asc_node": 336.7535,
        "meta_arg_of_pericenter": 124.3032,
        "meta_mean_anomaly": 254.9947,
        "meta_ephemeris_type": 0,
        "meta_classification_type": "U",
        "meta_norad_cat_id": 30365,
        "meta_element_set_no": 999,
        "meta_rev_at_epoch": 97549,
        "meta_bstar": 0.00033492592,
        "meta_mean_motion_dot": 7.66e-06,
        "meta_mean_motion_ddot": 0,
        "tle_line1": "1 30365U 99025ACC 25342.25215806  .00000766  00000+0  33493-3 0  9990",
        "tle_line2": "2 30365  98.6187 336.7535 0167890 124.3032 254.9947 14.19223423975491"
      },
      "geometry": {
        "type": "Point",
        "coordinates": [
          163.03413290055713,
          32.61990535559505
        ]
      }
    },
    {
      "type": "Feature",
      "properties": {
        "norad_id": 30366,
        "name": "FENGYUN 1C DEB",
        "group": "fengyun-1c-debris",
        "lat": 40.611297956432345,
        "lon": -107.38709915391283,
        "alt_km": 820.6608522610641,
        "timestamp": "2025-12-08T23:34:04.245344+00:00",
        "meta_object_name": "FENGYUN 1C DEB",
        "meta_object_id": "1999-025ACD",
        "meta_epoch": "2025-12-08T13:54:32.253408",
        "meta_mean_motion": 14.3346977,
        "meta_eccentricity": 0.00619263,
        "meta_inclination": 98.9227,
        "meta_ra_of_asc_node": 259.9399,
        "meta_arg_of_pericenter": 231.691,
        "meta_mean_anomaly": 253.8119,
        "meta_ephemeris_type": 0,
        "meta_classification_type": "U",
        "meta_norad_cat_id": 30366,
        "meta_element_set_no": 999,
        "meta_rev_at_epoch": 98263,
        "meta_bstar": 0.00097511612,
        "meta_mean_motion_dot": 2.706e-05,
        "meta_mean_motion_ddot": 0,
        "tle_line1": "1 30366U 99025ACD 25342.57953997  .00002706  00000+0  97512-3 0  9994",
        "tle_line2": "2 30366  98.9227 259.9399 0061926 231.6910 253.8119 14.33469770982630"
      },
      "geometry": {
        "type": "Point",
        "coordinates": [
          -107.38709915391283,
          40.611297956432345
        ]
      }
    }
  ]
}